[Satellite]
VERSION=1.1
NAME=LUCH 5B (SDCM/PRN 125)
NICKNAME=LUCH 5B (SDCM/PRN 125)
TLE1=1 38977U 12061A   15055.42211421 -.00000152  00000-0  00000+0 0  9995
TLE2=2 38977   1.8467  82.4260 0002514 187.5814  20.0700  1.00270793  8758
